[{"OBJECT_NAME":"SAUDISAT 1C (SO-50)","OBJECT_ID":"2002-058C","EPOCH":"2026-04-26T20:05:43.896768","MEAN_MOTION":14.82930098,"ECCENTRICITY":0.00755917,"INCLINATION":64.5515,"RA_OF_ASC_NODE":287.8458,"ARG_OF_PERICENTER":271.8075,"MEAN_ANOMALY":87.4374,"EPHEMERIS_TYPE":0,"CLASSIFICATION_TYPE":"U","NORAD_CAT_ID":27607,"ELEMENT_SET_NO":999,"REV_AT_EPOCH":25684,"BSTAR":0.00015126916,"MEAN_MOTION_DOT":1.136e-5,"MEAN_MOTION_DDOT":0},{"OBJECT_NAME":"SAUDISAT 2","OBJECT_ID":"2004-025F","EPOCH":"2026-04-27T06:24:37.232640","MEAN_MOTION":14.56651614,"ECCENTRICITY":0.00259701,"INCLINATION":98.5511,"RA_OF_ASC_NODE":115.9357,"ARG_OF_PERICENTER":93.0749,"MEAN_ANOMALY":267.342,"EPHEMERIS_TYPE":0,"CLASSIFICATION_TYPE":"U","NORAD_CAT_ID":28371,"ELEMENT_SET_NO":999,"REV_AT_EPOCH":15833,"BSTAR":8.7063952e-5,"MEAN_MOTION_DOT":3.41e-6,"MEAN_MOTION_DDOT":0},{"OBJECT_NAME":"SAUDISAT 3","OBJECT_ID":"2007-012B","EPOCH":"2026-04-27T06:09:27.828576","MEAN_MOTION":14.7139318,"ECCENTRICITY":0.00154028,"INCLINATION":98.1421,"RA_OF_ASC_NODE":67.6367,"ARG_OF_PERICENTER":33.9968,"MEAN_ANOMALY":326.2223,"EPHEMERIS_TYPE":0,"CLASSIFICATION_TYPE":"U","NORAD_CAT_ID":31118,"ELEMENT_SET_NO":999,"REV_AT_EPOCH":2025,"BSTAR":6.4697118e-5,"MEAN_MOTION_DOT":3.5e-6,"MEAN_MOTION_DDOT":0},{"OBJECT_NAME":"PISAT","OBJECT_ID":"2016-059B","EPOCH":"2026-04-27T06:14:39.958080","MEAN_MOTION":14.68889095,"ECCENTRICITY":0.00293229,"INCLINATION":97.8188,"RA_OF_ASC_NODE":119.9048,"ARG_OF_PERICENTER":11.3418,"MEAN_ANOMALY":348.8443,"EPHEMERIS_TYPE":0,"CLASSIFICATION_TYPE":"U","NORAD_CAT_ID":41784,"ELEMENT_SET_NO":999,"REV_AT_EPOCH":51226,"BSTAR":0.00020871498,"MEAN_MOTION_DOT":1.181e-5,"MEAN_MOTION_DDOT":0},{"OBJECT_NAME":"FLYING LAPTOP","OBJECT_ID":"2017-042G","EPOCH":"2026-04-27T07:40:35.331168","MEAN_MOTION":15.00817212,"ECCENTRICITY":0.00180084,"INCLINATION":97.4461,"RA_OF_ASC_NODE":274.8924,"ARG_OF_PERICENTER":298.7085,"MEAN_ANOMALY":61.2329,"EPHEMERIS_TYPE":0,"CLASSIFICATION_TYPE":"U","NORAD_CAT_ID":42831,"ELEMENT_SET_NO":999,"REV_AT_EPOCH":47882,"BSTAR":0.0002145015,"MEAN_MOTION_DOT":2.676e-5,"MEAN_MOTION_DDOT":0},{"OBJECT_NAME":"SALSAT","OBJECT_ID":"2020-068K","EPOCH":"2026-04-27T05:51:03.655584","MEAN_MOTION":15.29030388,"ECCENTRICITY":0.00115696,"INCLINATION":97.8862,"RA_OF_ASC_NODE":117.2385,"ARG_OF_PERICENTER":117.313,"MEAN_ANOMALY":242.9288,"EPHEMERIS_TYPE":0,"CLASSIFICATION_TYPE":"U","NORAD_CAT_ID":46495,"ELEMENT_SET_NO":999,"REV_AT_EPOCH":30757,"BSTAR":0.00034615871,"MEAN_MOTION_DOT":9.696e-5,"MEAN_MOTION_DDOT":0}]
